STARLINK-5196           
1 55319U 23010BC  23039.58334491 -.00062937  00000+0 -52508-3 0  9994
2 55319  70.0000  12.5220 0003356 273.4327 188.9594 15.69946558  1305
HAWK-6B                 
1 55324U 23011A   23039.13769009  .00011019  00000+0  76037-3 0  9995
2 55324  40.5102 198.7778 0002565 291.4139  68.7180 15.05609578  2139
ELECTRON KICK STAGE R/B 
1 55325U 23011B   23039.60208003  .00009051  00000+0  62765-3 0  9996
2 55325  40.5063 196.1348 0004043 273.4748  86.5737 15.05552610  2208
HAWK-6C                 
1 55326U 23011C   23039.59963961  .00000083  00000+0  16838-4 0  9993
2 55326  40.4922 196.0940 0003084 319.1547  40.9594 15.05764892  2200
HAWK-6A                 
1 55327U 23011D   23039.59950111  .00003292  00000+0  23448-3 0  9996
2 55327  40.5049 196.1110 0004050 277.3445  82.6945 15.05743925  2205
ELECTRON R/B            
1 55328U 23011E   23039.58037376  .00119328  00000+0  15355-2 0  9990
2 55328  40.4816 191.4504 0166450 234.4870 124.0748 15.43170001  2260
STARLINK-5492           
1 55331U 23013A   23039.58334491 -.00784784  00000+0 -44413-2 0  9997
2 55331  43.0000 323.8326 0001518 259.9701 236.8888 15.80171742  1304
STARLINK-5491           
1 55332U 23013B   23039.58334491  .00234810  00000+0  83950-3 0  9996
2 55332  42.9967 323.4227 0005450 269.3939  29.3538 15.87397536  1303
STARLINK-5493           
1 55333U 23013C   23039.58334491 -.00786222  00000+0 -44464-2 0  9994
2 55333  43.0001 323.8303 0001491 267.6881 230.0297 15.80190380  1306
STARLINK-5652           
1 55334U 23013D   23039.58334491 -.00786087  00000+0 -44473-2 0  9994
2 55334  43.0002 323.8316 0001487 272.0290 225.2507 15.80181999  1307
STARLINK-5660           
1 55335U 23013E   23039.58334491 -.00785124  00000+0 -44361-2 0  9992
2 55335  43.0002 323.8279 0001518 264.8350 233.7348 15.80207258  1301
STARLINK-5655           
1 55336U 23013F   23039.58334491 -.00768085  00000+0 -26742-2 0  9993
2 55336  43.0000 322.8071 0005810 269.0351 276.8582 15.90038745  1308
STARLINK-5667           
1 55337U 23013G   23039.58334491 -.00831499  00000+0 -31869-2 0  9990
2 55337  43.0002 323.3437 0002330 275.0151  54.3957 15.88340846  1302
STARLINK-5658           
1 55338U 23013H   23039.58334491 -.00784118  00000+0 -44280-2 0  9997
2 55338  43.0002 323.8273 0001457 265.8328 233.1425 15.80217015  1308
STARLINK-5671           
1 55339U 23013J   23039.58334491 -.00783816  00000+0 -44187-2 0  9998
2 55339  43.0001 323.8228 0001538 254.9755 245.6885 15.80252621  1301
STARLINK-5675           
1 55340U 23013K   23039.58334491 -.00784867  00000+0 -44233-2 0  9999
2 55340  43.0002 323.8220 0001504 266.1419 234.9481 15.80262048  1308
STARLINK-5670           
1 55341U 23013L   23039.58334491 -.00784147  00000+0 -44225-2 0  9992
2 55341  43.0001 323.8239 0001490 263.2030 237.0250 15.80244443  1306
STARLINK-5657           
1 55342U 23013M   23039.58334491 -.00783622  00000+0 -44137-2 0  9992
2 55342  43.0001 323.8208 0001538 254.4229 247.0697 15.80271198  1301
STARLINK-5661           
1 55343U 23013N   23039.58334491 -.00784442  00000+0 -44147-2 0  9995
2 55343  43.0001 323.8182 0001532 258.4127 243.9004 15.80291021  1302
STARLINK-5662           
1 55344U 23013P   23039.58334491 -.00784783  00000+0 -44189-2 0  9990
2 55344  43.0002 323.8194 0001497 265.6718 236.2418 15.80281076  1306
STARLINK-5653           
1 55345U 23013Q   23039.58334491 -.00903872  00000+0 -39726-2 0  9994
2 55345  43.0003 323.2264 0001740 249.7856 127.2545 15.85765023  1301
STARLINK-5631           
1 55346U 23013R   23039.58334491 -.00785921  00000+0 -44227-2 0  9990
2 55346  43.0001 323.8175 0001528 255.9828 246.8432 15.80296410  1306
STARLINK-5663           
1 55347U 23013S   23039.58334491 -.00784527  00000+0 -44060-2 0  9997
2 55347  43.0003 323.8130 0001534 258.3589 246.0609 15.80336122  1301
STARLINK-5609           
1 55348U 23013T   23039.58334491 -.00784448  00000+0 -44114-2 0  9990
2 55348  43.0003 323.8163 0001539 257.9097 245.2802 15.80307286  1307
STARLINK-5666           
1 55349U 23013U   23039.58334491 -.00785868  00000+0 -44178-2 0  9998
2 55349  43.0002 323.8153 0001482 266.8711 236.7066 15.80319136  1309
STARLINK-5668           
1 55350U 23013V   23039.58334491 -.00784947  00000+0 -44106-2 0  9998
2 55350  43.0001 323.8140 0001500 265.0071 239.0094 15.80326509  1306
STARLINK-5659           
1 55351U 23013W   23039.58334491 -.00786639  00000+0 -44115-2 0  9999
2 55351  43.0001 323.8087 0001492 270.6793 235.4396 15.80372915  1307
STARLINK-5547           
1 55352U 23013X   23039.58334491 -.00786529  00000+0 -44145-2 0  9991
2 55352  43.0002 323.8112 0001484 271.6014 233.6728 15.80355027  1300
STARLINK-5608           
1 55353U 23013Y   23039.58334491 -.00787551  00000+0 -44038-2 0  9999
2 55353  43.0002 323.8016 0001499 271.2452 237.7884 15.80437797  1305
STARLINK-5649           
1 55354U 23013Z   23039.58334491 -.00785155  00000+0 -44045-2 0  9996
2 55354  43.0002 323.8101 0001503 263.3286 242.3743 15.80362568  1303
STARLINK-5647           
1 55355U 23013AA  23039.58334491 -.00784237  00000+0 -43913-2 0  9990
2 55355  43.0000 323.8055 0001554 253.3450 254.0133 15.80399269  1309
STARLINK-5083           
1 55356U 23013AB  23039.58334491 -.00786365  00000+0 -44080-2 0  9991
2 55356  43.0002 323.8080 0001481 265.1276 241.4086 15.80381907  1303
STARLINK-5651           
1 55357U 23013AC  23039.58334491 -.00786798  00000+0 -44048-2 0  9996
2 55357  43.0003 323.8048 0001470 269.3992 238.3732 15.80410633  1300
STARLINK-5622           
1 55358U 23013AD  23039.58334491 -.00786008  00000+0 -44038-2 0  9990
2 55358  43.0002 323.8069 0001526 255.5880 251.3550 15.80391378  1305
STARLINK-5641           
1 55359U 23013AE  23039.58334491 -.00784713  00000+0 -43905-2 0  9994
2 55359  43.0003 323.8033 0001522 259.8333 248.3595 15.80417776  1300
STARLINK-5664           
1 55360U 23013AF  23039.58334491 -.00785881  00000+0 -43461-2 0  9990
2 55360  43.0002 323.7745 0001470 269.9365 249.9123 15.80671929  1305
STARLINK-5665           
1 55361U 23013AG  23039.58334491 -.00787348  00000+0 -43968-2 0  9993
2 55361  43.0003 323.7985 0001512 260.2161 250.0533 15.80465880  1303
STARLINK-5574           
1 55362U 23013AH  23039.58334491 -.00786484  00000+0 -43944-2 0  9998
2 55362  43.0001 323.7994 0001483 265.7643 244.1659 15.80452042  1303
STARLINK-5648           
1 55363U 23013AJ  23039.58334491 -.00787481  00000+0 -43959-2 0  9993
2 55363  43.0001 323.7975 0001498 263.0661 247.6297 15.80474376  1300
STARLINK-5627           
1 55364U 23013AK  23039.58334491 -.00786294  00000+0 -43982-2 0  9991
2 55364  43.0002 323.8025 0001479 269.4768 239.1396 15.80427762  1309
STARLINK-5639           
1 55365U 23013AL  23039.58334491 -.00786051  00000+0 -43818-2 0  9991
2 55365  43.0003 323.7941 0001454 265.9403 246.0015 15.80501185  1304
STARLINK-5654           
1 55366U 23013AM  23039.58334491 -.00786672  00000+0 -43966-2 0  9995
2 55366  43.0002 323.8004 0001480 270.0829 239.3558 15.80446933  1309
STARLINK-5635           
1 55367U 23013AN  23039.58334491 -.00784745  00000+0 -43723-2 0  9996
2 55367  43.0001 323.7930 0001479 270.3043 242.0616 15.80508596  1305
STARLINK-5625           
1 55368U 23013AP  23039.58334491 -.00786647  00000+0 -43891-2 0  9996
2 55368  43.0001 323.7962 0001485 269.7077 241.4048 15.80482910  1300
STARLINK-5644           
1 55369U 23013AQ  23039.58334491 -.00784719  00000+0 -43698-2 0  9990
2 55369  43.0003 323.7917 0001553 255.2349 257.5098 15.80519480  1307
STARLINK-5027           
1 55370U 23013AR  23039.58334491 -.00785794  00000+0 -43821-2 0  9994
2 55370  43.0002 323.7949 0001517 271.4668 240.0591 15.80491458  1306
STARLINK-5590           
1 55371U 23013AS  23039.58334491 -.00784816  00000+0 -43652-2 0  9991
2 55371  43.0003 323.7886 0001540 256.5765 257.4476 15.80545159  1308
STARLINK-5568           
1 55372U 23013AT  23039.58334491 -.00785110  00000+0 -43708-2 0  9992
2 55372  43.0002 323.7908 0001479 267.8450 245.3544 15.80526916  1302
STARLINK-5581           
1 55373U 23013AU  23039.58334491 -.00787005  00000+0 -43763-2 0  9999
2 55373  43.0001 323.7876 0001482 266.0438 248.3841 15.80556498  1308
STARLINK-5578           
1 55374U 23013AV  23039.58334491 -.00786550  00000+0 -43774-2 0  9996
2 55374  43.0002 323.7899 0001469 267.0987 246.5077 15.80537611  1307
STARLINK-5588           
1 55375U 23013AW  23039.58334491 -.00786466  00000+0 -43677-2 0  9995
2 55375  43.0001 323.7845 0001481 265.1786 250.5068 15.80582732  1307
STARLINK-5586           
1 55376U 23013AX  23039.58334491 -.00784958  00000+0 -43606-2 0  9992
2 55376  43.0003 323.7856 0001513 260.5589 254.7142 15.80572335  1305
STARLINK-5567           
1 55377U 23013AY  23039.58334491 -.00787502  00000+0 -43616-2 0  9992
2 55377  43.0003 323.7774 0001472 264.6955 253.9572 15.80643797  1300
STARLINK-5572           
1 55378U 23013AZ  23039.58334491 -.00784917  00000+0 -43622-2 0  9997
2 55378  43.0003 323.7866 0001516 260.1190 254.7400 15.80563182  1302
STARLINK-5569           
1 55379U 23013BA  23039.58334491 -.00784830  00000+0 -43506-2 0  9993
2 55379  43.0001 323.7802 0001475 264.8627 252.4724 15.80618228  1307
STARLINK-5571           
1 55380U 23013BB  23039.58334491 -.00784662  00000+0 -43541-2 0  9997
2 55380  43.0001 323.7825 0001477 264.2535 252.3337 15.80595888  1303
STARLINK-5575           
1 55381U 23013BC  23039.58334491 -.00785186  00000+0 -43517-2 0  9993
2 55381  43.0003 323.7790 0001494 265.8185 252.0147 15.80623286  1304
STARLINK-5576           
1 55382U 23013BD  23039.58334491 -.00785049  00000+0 -43574-2 0  9995
2 55382  43.0001 323.7835 0001485 263.3455 252.7486 15.80591087  1302
STARLINK-5531           
1 55383U 23013BE  23039.58334491 -.00788732  00000+0 -43699-2 0  9996
2 55383  43.0004 323.7785 0001500 269.7312 248.4295 15.80639340  1305
